ONEWEB-0427             
1 50499U 21132AG  24154.47115780 -.00000008  00000+0 -53132-4 0  9992
2 50499  87.9127 123.7017 0001829  82.1500 277.9840 13.18688701123466
ONEWEB-0429             
1 50500U 21132AH  24154.61027928  .00000087  00000+0  18859-3 0  9998
2 50500  87.9134 123.6792 0002244  87.7854 272.3535 13.18685472123452
ONEWEB-0430             
1 50501U 21132AJ  24154.44745527  .00000047  00000+0  87684-4 0  9991
2 50501  87.9131 123.7169 0002458  77.8996 282.2411 13.18684325123474
ONEWEB-0432             
1 50502U 21132AK  24154.40318398 -.00000313  00000+0 -82614-3 0  9995
2 50502  87.9129 123.7185 0002175  71.8678 288.2691 13.18685536123423
ONEWEB-0440             
1 50503U 21132AL  24154.46641629  .00000010  00000+0 -65164-5 0  9994
2 50503  87.9132 123.6941 0002200 101.3012 258.8367 13.18688548123426
ONEWEB-0450             
1 50504U 21132AM  24154.61198735  .00000025  00000+0  29412-4 0  9997
2 50504  87.9133 123.6937 0002458  85.9665 274.1748 13.18687688123472
ONEWEB-0410             
1 51622U 22012A   24154.51177910  .00000016  00000+0  81793-5 0  9999
2 51622  87.9158 154.0803 0000452  91.9758 268.1425 13.17650828115632
ONEWEB-0411             
1 51623U 22012B   24154.45104022  .00000594  00000+0  16663-2 0  9999
2 51623  87.8950 184.3136 0002510  78.7367 281.4043 13.10375277111751
